******** Week 0 almanac for PRN-19 ********
ID:                         19
Health:                     000
Eccentricity:               0.9500980377E-002
Time of Applicability(s):  319488.0000
Orbital Inclination(rad):   0.9820976436
Rate of Right Ascen(r/s):  -0.7828897534E-008
SQRT(A)  (m 1/2):           5153.587402
Right Ascen at Week(rad):  -0.3056319276E+001
Argument of Perigee(rad):   1.371831978
Mean Anom(rad):             0.2735609059E+001
Af0(s):                    -0.3318786621E-003
Af1(s/s):                   0.3637978807E-011
week:                        0

******** Week 0 almanac for PRN-20 ********
ID:                         20
Health:                     000
Eccentricity:               0.4351615906E-002
Time of Applicability(s):  319488.0000
Orbital Inclination(rad):   0.9300801154
Rate of Right Ascen(r/s):  -0.8194627053E-008
SQRT(A)  (m 1/2):           5153.617676
Right Ascen at Week(rad):  -0.1180785082E+001
Argument of Perigee(rad):   2.330952342
Mean Anom(rad):            -0.2536655945E+001
Af0(s):                     0.5235671997E-003
Af1(s/s):                   0.0000000000E+000
week:                        0

******** Week 0 almanac for PRN-21 ********
ID:                         21
Health:                     000
Eccentricity:               0.2472114563E-001
Time of Applicability(s):  319488.0000
Orbital Inclination(rad):   0.9477868077
Rate of Right Ascen(r/s):  -0.7920329914E-008
SQRT(A)  (m 1/2):           5153.712402
Right Ascen at Week(rad):  -0.2166356878E+001
Argument of Perigee(rad):  -1.453729175
Mean Anom(rad):             0.2287332385E+001
Af0(s):                    -0.2155303955E-003
Af1(s/s):                   0.7275957614E-011
week:                        0

******** Week 0 almanac for PRN-22 ********
ID:                         22
Health:                     000
Eccentricity:               0.7319450378E-002
Time of Applicability(s):  319488.0000
Orbital Inclination(rad):   0.9268204062
Rate of Right Ascen(r/s):  -0.8263201338E-008
SQRT(A)  (m 1/2):           5153.468750
Right Ascen at Week(rad):  -0.1131939254E+001
Argument of Perigee(rad):  -1.383638312
Mean Anom(rad):            -0.7613619278E+000
Af0(s):                    -0.6809234619E-003
Af1(s/s):                  -0.7275957614E-011
week:                        0

******** Week 0 almanac for PRN-23 ********
ID:                         23
Health:                     000
Eccentricity:               0.1306772232E-001
Time of Applicability(s):  319488.0000
Orbital Inclination(rad):   0.9437301476
Rate of Right Ascen(r/s):  -0.8011762293E-008
SQRT(A)  (m 1/2):           5153.546387
Right Ascen at Week(rad):  -0.3294313624E-001
Argument of Perigee(rad):  -2.276469434
Mean Anom(rad):            -0.1421247057E+001
Af0(s):                    -0.1907348633E-003
Af1(s/s):                   0.0000000000E+000
week:                        0

******** Week 0 almanac for PRN-24 ********
ID:                         24
Health:                     000
Eccentricity:               0.8256435394E-002
Time of Applicability(s):  319488.0000
Orbital Inclination(rad):   0.9390622920
Rate of Right Ascen(r/s):  -0.8000333246E-008
SQRT(A)  (m 1/2):           5153.669434
Right Ascen at Week(rad):   0.9825102006E+000
Argument of Perigee(rad):   0.607092746
Mean Anom(rad):            -0.1913446289E+001
Af0(s):                    -0.6484985352E-004
Af1(s/s):                   0.0000000000E+000
week:                        0

******** Week 0 almanac for PRN-25 ********
ID:                         25
Health:                     000
Eccentricity:               0.8416175842E-002
Time of Applicability(s):  319488.0000
Orbital Inclination(rad):   0.9705568350
Rate of Right Ascen(r/s):  -0.8023191341E-008
SQRT(A)  (m 1/2):           5153.682129
Right Ascen at Week(rad):   0.2083556744E+001
Argument of Perigee(rad):   0.883068847
Mean Anom(rad):             0.2403104866E+001
Af0(s):                    -0.7438659668E-003
Af1(s/s):                  -0.3637978807E-011
week:                        0

******** Week 0 almanac for PRN-26 ********
ID:                         26
Health:                     000
Eccentricity:               0.3723144531E-002
Time of Applicability(s):  319488.0000
Orbital Inclination(rad):   0.9518734284
Rate of Right Ascen(r/s):  -0.8194627053E-008
SQRT(A)  (m 1/2):           5153.532715
Right Ascen at Week(rad):   0.2055830491E+001
Argument of Perigee(rad):   0.159419403
Mean Anom(rad):             0.1758780879E+001
Af0(s):                     0.1726150513E-003
Af1(s/s):                   0.1091393642E-010
week:                        0

******** Week 0 almanac for PRN-27 ********
ID:                         27
Health:                     000
Eccentricity:               0.6987094879E-002
Time of Applicability(s):  319488.0000
Orbital Inclination(rad):   0.9787899975
Rate of Right Ascen(r/s):  -0.7920329914E-008
SQRT(A)  (m 1/2):           5153.593750
Right Ascen at Week(rad):   0.3124692275E+001
Argument of Perigee(rad):   0.459659066
Mean Anom(rad):            -0.1882384676E-001
Af0(s):                    -0.1058578491E-003
Af1(s/s):                  -0.7275957614E-011
week:                        0

******** Week 0 almanac for PRN-28 ********
ID:                         28
Health:                     000
Eccentricity:               0.1910638809E-001
Time of Applicability(s):  319488.0000
Orbital Inclination(rad):   0.9824332019
Rate of Right Ascen(r/s):  -0.7920329914E-008
SQRT(A)  (m 1/2):           5153.656250
Right Ascen at Week(rad):   0.2170223288E+001
Argument of Perigee(rad):  -1.469679055
Mean Anom(rad):             0.8118698182E+000
Af0(s):                     0.7677078247E-003
Af1(s/s):                   0.0000000000E+000
week:                        0

******** Week 0 almanac for PRN-29 ********
ID:                         29
Health:                     000
Eccentricity:               0.9083747864E-003
Time of Applicability(s):  319488.0000
Orbital Inclination(rad):   0.9857468401
Rate of Right Ascen(r/s):  -0.7828897534E-008
SQRT(A)  (m 1/2):           5153.728516
Right Ascen at Week(rad):  -0.3091576491E+001
Argument of Perigee(rad):   1.588995496
Mean Anom(rad):             0.6789370505E+000
Af0(s):                     0.2288818359E-003
Af1(s/s):                  -0.7275957614E-011
week:                        0

******** Week 0 almanac for PRN-30 ********
ID:                         30
Health:                     000
Eccentricity:               0.3863811493E-002
Time of Applicability(s):  319488.0000
Orbital Inclination(rad):   0.9413213184
Rate of Right Ascen(r/s):  -0.8000333246E-008
SQRT(A)  (m 1/2):           5153.553711
Right Ascen at Week(rad):   0.1076556406E+001
Argument of Perigee(rad):  -3.007603776
Mean Anom(rad):            -0.2779691532E+001
Af0(s):                    -0.8392333984E-004
Af1(s/s):                  -0.7275957614E-011
week:                        0

******** Week 0 almanac for PRN-31 ********
ID:                         31
Health:                     000
Eccentricity:               0.9205341339E-002
Time of Applicability(s):  319488.0000
Orbital Inclination(rad):   0.9604181808
Rate of Right Ascen(r/s):  -0.7806039439E-008
SQRT(A)  (m 1/2):           5153.544922
Right Ascen at Week(rad):   0.1061549909E+001
Argument of Perigee(rad):   0.000062168
Mean Anom(rad):             0.3100426092E+001
Af0(s):                     0.4577636719E-004
Af1(s/s):                  -0.3637978807E-011
week:                        0

******** Week 0 almanac for PRN-32 ********
ID:                         32
Health:                     000
Eccentricity:               0.2847194672E-002
Time of Applicability(s):  319488.0000
Orbital Inclination(rad):   0.9571944243
Rate of Right Ascen(r/s):  -0.7874613724E-008
SQRT(A)  (m 1/2):           5153.715332
Right Ascen at Week(rad):  -0.2180492271E-001
Argument of Perigee(rad):  -2.560555485
Mean Anom(rad):             0.6471586311E+000
Af0(s):                    -0.1392364502E-003
Af1(s/s):                   0.1818989404E-010
week:                        0

